[{"OBJECT_NAME":"STARLINK-30278","OBJECT_ID":"2023-124F","EPOCH":"2026-03-09T16:46:42.610656","MEAN_MOTION":15.30195609,"ECCENTRICITY":0.00012414,"INCLINATION":53.1615,"RA_OF_ASC_NODE":206.9968,"ARG_OF_PERICENTER":72.608,"MEAN_ANOMALY":287.5057,"EPHEMERIS_TYPE":0,"CLASSIFICATION_TYPE":"U","NORAD_CAT_ID":57668,"ELEMENT_SET_NO":999,"REV_AT_EPOCH":14356,"BSTAR":4.140443e-5,"MEAN_MOTION_DOT":8.67e-6,"MEAN_MOTION_DDOT":0},{"OBJECT_NAME":"OBJECT M","OBJECT_ID":"2025-155M","EPOCH":"2026-03-09T22:37:12.666144","MEAN_MOTION":15.33288683,"ECCENTRICITY":0.00088001,"INCLINATION":97.4429,"RA_OF_ASC_NODE":38.1052,"ARG_OF_PERICENTER":139.1253,"MEAN_ANOMALY":221.0651,"EPHEMERIS_TYPE":0,"CLASSIFICATION_TYPE":"U","NORAD_CAT_ID":64887,"ELEMENT_SET_NO":999,"REV_AT_EPOCH":6565,"BSTAR":0.00087834095,"MEAN_MOTION_DOT":0.00028279,"MEAN_MOTION_DDOT":0}]
